Sangdae,Lee,HomeNet,Address,City,State,Zip,County,Url,PhoneNumber,Fax
Sangdae,Lee,HomeNet,Address,City,State,Zip,County,Url,PhoneNumber,Fax
Sangdae,Lee,HomeNet,Address,City,State,Zip,County,Url,PhoneNumber,Fax
Sangdae,Lee,HomeNet,Address,City,State,Zip,County,Url,PhoneNumber,Fax
Sangdae,Lee,HomeNet,Address,City,State,Zip,County,Url,PhoneNumber,Fax
Sangdae,Lee,HomeNet,Address,City,State,Zip,County,Url,PhoneNumber,Fax
Sangdae,Lee,HomeNet,Address,City,State,Zip,County,Url,PhoneNumber,Fax
Sangdae,Lee,HomeNet,Address,City,State,Zip,County,Url,PhoneNumber,Fax
Sangdae,Lee,HomeNet,Address,City,State,Zip,County,Url,PhoneNumber,Fax
Sangdae,Lee,HomeNet,Address,City,State,Zip,County,Url,PhoneNumber,Fax
Sangdae,Lee,HomeNet,Address,City,State,Zip,County,Url,PhoneNumber,Fax
Sangdae,Lee,HomeNet,Address,City,State,Zip,County,Url,PhoneNumber,Fax
Sangdae,Lee,HomeNet,Address,City,State,Zip,County,Url,PhoneNumber,Fax
Sangdae,Lee,HomeNet,Address,City,State,Zip,County,Url,PhoneNumber,Fax
Sangdae,Lee,HomeNet,Address,City,State,Zip,County,Url,PhoneNumber,Fax
Sangdae,Lee,HomeNet,Address,City,State,Zip,County,Url,PhoneNumber,Fax
Sangdae,Lee,HomeNet,Address,City,State,Zip,County,Url,PhoneNumber,Fax
Sangdae,Lee,HomeNet,Address,City,State,Zip,County,Url,PhoneNumber,Fax
Sangdae,Lee,HomeNet,Address,City,State,Zip,County,Url,PhoneNumber,Fax
Sangdae,Lee,HomeNet,Address,City,State,Zip,County,Url,PhoneNumber,Fax
Sangdae,Lee,HomeNet,Address,City,State,Zip,County,Url,PhoneNumber,Fax
Sangdae,Lee,HomeNet,Address,City,State,Zip,County,Url,PhoneNumber,Fax
Sangdae,Lee,HomeNet,Address,City,State,Zip,County,Url,PhoneNumber,Fax
Sangdae,Lee,HomeNet,Address,City,State,Zip,County,Url,PhoneNumber,Fax
Sangdae,Lee,HomeNet,Address,City,State,Zip,County,Url,PhoneNumber,Fax
Sangdae,Lee,HomeNet,Address,City,State,Zip,County,Url,PhoneNumber,Fax
Sangdae,Lee,HomeNet,Address,City,State,Zip,County,Url,PhoneNumber,Fax
Sangdae,Lee,HomeNet,Address,City,State,Zip,County,Url,PhoneNumber,Fax
Sangdae,Lee,HomeNet,Address,City,State,Zip,County,Url,PhoneNumber,Fax
Sangdae,Lee,HomeNet,Address,City,State,Zip,County,Url,PhoneNumber,Fax
Sangdae,Lee,HomeNet,Address,City,State,Zip,County,Url,PhoneNumber,Fax
Sangdae,Lee,HomeNet,Address,City,State,Zip,County,Url,PhoneNumber,Fax
Sangdae,Lee,HomeNet,Address,City,State,Zip,County,Url,PhoneNumber,Fax
Sangdae,Lee,HomeNet,Address,City,State,Zip,County,Url,PhoneNumber,Fax
Sangdae,Lee,HomeNet,Address,City,State,Zip,County,Url,PhoneNumber,Fax
Sangdae,Lee,HomeNet,Address,City,State,Zip,County,Url,PhoneNumber,Fax
Sangdae,Lee,HomeNet,Address,City,State,Zip,County,Url,PhoneNumber,Fax
Sangdae,Lee,HomeNet,Address,City,State,Zip,County,Url,PhoneNumber,Fax
Sangdae,Lee,HomeNet,Address,City,State,Zip,County,Url,PhoneNumber,Fax
Sangdae,Lee,HomeNet,Address,City,State,Zip,County,Url,PhoneNumber,Fax
Sangdae,Lee,HomeNet,Address,City,State,Zip,County,Url,PhoneNumber,Fax
Sangdae,Lee,HomeNet,Address,City,State,Zip,County,Url,PhoneNumber,Fax
Sangdae,Lee,HomeNet,Address,City,State,Zip,County,Url,PhoneNumber,Fax
Sangdae,Lee,HomeNet,Address,City,State,Zip,County,Url,PhoneNumber,Fax
Sangdae,Lee,HomeNet,Address,City,State,Zip,County,Url,PhoneNumber,Fax
Sangdae,Lee,HomeNet,Address,City,State,Zip,County,Url,PhoneNumber,Fax
Sangdae,Lee,HomeNet,Address,City,State,Zip,County,Url,PhoneNumber,Fax
Sangdae,Lee,HomeNet,Address,City,State,Zip,County,Url,PhoneNumber,Fax
Sangdae,Lee,HomeNet,Address,City,State,Zip,County,Url,PhoneNumber,Fax
Sangdae,Lee,HomeNet,Address,City,State,Zip,County,Url,PhoneNumber,Fax
Sangdae,Lee,HomeNet,Address,City,State,Zip,County,Url,PhoneNumber,Fax
Sangdae,Lee,HomeNet,Address,City,State,Zip,County,Url,PhoneNumber,Fax
Sangdae,Lee,HomeNet,Address,City,State,Zip,County,Url,PhoneNumber,Fax
Sangdae,Lee,HomeNet,Address,City,State,Zip,County,Url,PhoneNumber,Fax
Sangdae,Lee,HomeNet,Address,City,State,Zip,County,Url,PhoneNumber,Fax
Sangdae,Lee,HomeNet,Address,City,State,Zip,County,Url,PhoneNumber,Fax
Sangdae,Lee,HomeNet,Address,City,State,Zip,County,Url,PhoneNumber,Fax
Sangdae,Lee,HomeNet,Address,City,State,Zip,County,Url,PhoneNumber,Fax
Sangdae,Lee,HomeNet,Address,City,State,Zip,County,Url,PhoneNumber,Fax
Sangdae,Lee,HomeNet,Address,City,State,Zip,County,Url,PhoneNumber,Fax
Sangdae,Lee,HomeNet,Address,City,State,Zip,County,Url,PhoneNumber,Fax
Sangdae,Lee,HomeNet,Address,City,State,Zip,County,Url,PhoneNumber,Fax
Sangdae,Lee,HomeNet,Address,City,State,Zip,County,Url,PhoneNumber,Fax
Sangdae,Lee,HomeNet,Address,City,State,Zip,County,Url,PhoneNumber,Fax
Sangdae,Lee,HomeNet,Address,City,State,Zip,County,Url,PhoneNumber,Fax
Sangdae,Lee,HomeNet,Address,City,State,Zip,County,Url,PhoneNumber,Fax
Sangdae,Lee,HomeNet,Address,City,State,Zip,County,Url,PhoneNumber,Fax
Sangdae,Lee,HomeNet,Address,City,State,Zip,County,Url,PhoneNumber,Fax
Sangdae,Lee,HomeNet,Address,City,State,Zip,County,Url,PhoneNumber,Fax
Sangdae,Lee,HomeNet,Address,City,State,Zip,County,Url,PhoneNumber,Fax
Sangdae,Lee,HomeNet,Address,City,State,Zip,County,Url,PhoneNumber,Fax
Sangdae,Lee,HomeNet,Address,City,State,Zip,County,Url,PhoneNumber,Fax
Sangdae,Lee,HomeNet,Address,City,State,Zip,County,Url,PhoneNumber,Fax
Sangdae,Lee,HomeNet,Address,City,State,Zip,County,Url,PhoneNumber,Fax
Sangdae,Lee,HomeNet,Address,City,State,Zip,County,Url,PhoneNumber,Fax
Sangdae,Lee,HomeNet,Address,City,State,Zip,County,Url,PhoneNumber,Fax
Sangdae,Lee,HomeNet,Address,City,State,Zip,County,Url,PhoneNumber,Fax
Sangdae,Lee,HomeNet,Address,City,State,Zip,County,Url,PhoneNumber,Fax
Sangdae,Lee,HomeNet,Address,City,State,Zip,County,Url,PhoneNumber,Fax
Sangdae,Lee,HomeNet,Address,City,State,Zip,County,Url,PhoneNumber,Fax
Sangdae,Lee,HomeNet,Address,City,State,Zip,County,Url,PhoneNumber,Fax
Sangdae,Lee,HomeNet,Address,City,State,Zip,County,Url,PhoneNumber,Fax
Sangdae,Lee,HomeNet,Address,City,State,Zip,County,Url,PhoneNumber,Fax
Sangdae,Lee,HomeNet,Address,City,State,Zip,County,Url,PhoneNumber,Fax
Sangdae,Lee,HomeNet,Address,City,State,Zip,County,Url,PhoneNumber,Fax
Sangdae,Lee,HomeNet,Address,City,State,Zip,County,Url,PhoneNumber,Fax
Sangdae,Lee,HomeNet,Address,City,State,Zip,County,Url,PhoneNumber,Fax
Sangdae,Lee,HomeNet,Address,City,State,Zip,County,Url,PhoneNumber,Fax
Sangdae,Lee,HomeNet,Address,City,State,Zip,County,Url,PhoneNumber,Fax
Sangdae,Lee,HomeNet,Address,City,State,Zip,County,Url,PhoneNumber,Fax
Sangdae,Lee,HomeNet,Address,City,State,Zip,County,Url,PhoneNumber,Fax
Sangdae,Lee,HomeNet,Address,City,State,Zip,County,Url,PhoneNumber,Fax
Sangdae,Lee,HomeNet,Address,City,State,Zip,County,Url,PhoneNumber,Fax
Sangdae,Lee,HomeNet,Address,City,State,Zip,County,Url,PhoneNumber,Fax
Sangdae,Lee,HomeNet,Address,City,State,Zip,County,Url,PhoneNumber,Fax
Sangdae,Lee,HomeNet,Address,City,State,Zip,County,Url,PhoneNumber,Fax
Sangdae,Lee,HomeNet,Address,City,State,Zip,County,Url,PhoneNumber,Fax
Sangdae,Lee,HomeNet,Address,City,State,Zip,County,Url,PhoneNumber,Fax
Sangdae,Lee,HomeNet,Address,City,State,Zip,County,Url,PhoneNumber,Fax
Sangdae,Lee,HomeNet,Address,City,State,Zip,County,Url,PhoneNumber,Fax
Sangdae,Lee,HomeNet,Address,City,State,Zip,County,Url,PhoneNumber,Fax
Sangdae,Lee,HomeNet,Address,City,State,Zip,County,Url,PhoneNumber,Fax
Sangdae,Lee,HomeNet,Address,City,State,Zip,County,Url,PhoneNumber,Fax
Sangdae,Lee,HomeNet,Address,City,State,Zip,County,Url,PhoneNumber,Fax
Sangdae,Lee,HomeNet,Address,City,State,Zip,County,Url,PhoneNumber,Fax
Sangdae,Lee,HomeNet,Address,City,State,Zip,County,Url,PhoneNumber,Fax
Sangdae,Lee,HomeNet,Address,City,State,Zip,County,Url,PhoneNumber,Fax
Sangdae,Lee,HomeNet,Address,City,State,Zip,County,Url,PhoneNumber,Fax
Sangdae,Lee,HomeNet,Address,City,State,Zip,County,Url,PhoneNumber,Fax
Sangdae,Lee,HomeNet,Address,City,State,Zip,County,Url,PhoneNumber,Fax
Sangdae,Lee,HomeNet,Address,City,State,Zip,County,Url,PhoneNumber,Fax
Sangdae,Lee,HomeNet,Address,City,State,Zip,County,Url,PhoneNumber,Fax
Sangdae,Lee,HomeNet,Address,City,State,Zip,County,Url,PhoneNumber,Fax
Sangdae,Lee,HomeNet,Address,City,State,Zip,County,Url,PhoneNumber,Fax
Sangdae,Lee,HomeNet,Address,City,State,Zip,County,Url,PhoneNumber,Fax
Sangdae,Lee,HomeNet,Address,City,State,Zip,County,Url,PhoneNumber,Fax
Sangdae,Lee,HomeNet,Address,City,State,Zip,County,Url,PhoneNumber,Fax
Sangdae,Lee,HomeNet,Address,City,State,Zip,County,Url,PhoneNumber,Fax
Sangdae,Lee,HomeNet,Address,City,State,Zip,County,Url,PhoneNumber,Fax
Sangdae,Lee,HomeNet,Address,City,State,Zip,County,Url,PhoneNumber,Fax
Sangdae,Lee,HomeNet,Address,City,State,Zip,County,Url,PhoneNumber,Fax
Sangdae,Lee,HomeNet,Address,City,State,Zip,County,Url,PhoneNumber,Fax
Sangdae,Lee,HomeNet,Address,City,State,Zip,County,Url,PhoneNumber,Fax
Sangdae,Lee,HomeNet,Address,City,State,Zip,County,Url,PhoneNumber,Fax
Sangdae,Lee,HomeNet,Address,City,State,Zip,County,Url,PhoneNumber,Fax
Sangdae,Lee,HomeNet,Address,City,State,Zip,County,Url,PhoneNumber,Fax
Sangdae,Lee,HomeNet,Address,City,State,Zip,County,Url,PhoneNumber,Fax
Sangdae,Lee,HomeNet,Address,City,State,Zip,County,Url,PhoneNumber,Fax
Sangdae,Lee,HomeNet,Address,City,State,Zip,County,Url,PhoneNumber,Fax
Sangdae,Lee,HomeNet,Address,City,State,Zip,County,Url,PhoneNumber,Fax
Sangdae,Lee,HomeNet,Address,City,State,Zip,County,Url,PhoneNumber,Fax
Sangdae,Lee,HomeNet,Address,City,State,Zip,County,Url,PhoneNumber,Fax
Sangdae,Lee,HomeNet,Address,City,State,Zip,County,Url,PhoneNumber,Fax
Sangdae,Lee,HomeNet,Address,City,State,Zip,County,Url,PhoneNumber,Fax
Sangdae,Lee,HomeNet,Address,City,State,Zip,County,Url,PhoneNumber,Fax
Sangdae,Lee,HomeNet,Address,City,State,Zip,County,Url,PhoneNumber,Fax
Sangdae,Lee,HomeNet,Address,City,State,Zip,County,Url,PhoneNumber,Fax
Sangdae,Lee,HomeNet,Address,City,State,Zip,County,Url,PhoneNumber,Fax
Sangdae,Lee,HomeNet,Address,City,State,Zip,County,Url,PhoneNumber,Fax
Sangdae,Lee,HomeNet,Address,City,State,Zip,County,Url,PhoneNumber,Fax
Sangdae,Lee,HomeNet,Address,City,State,Zip,County,Url,PhoneNumber,Fax
Sangdae,Lee,HomeNet,Address,City,State,Zip,County,Url,PhoneNumber,Fax
Sangdae,Lee,HomeNet,Address,City,State,Zip,County,Url,PhoneNumber,Fax
Sangdae,Lee,HomeNet,Address,City,State,Zip,County,Url,PhoneNumber,Fax
Sangdae,Lee,HomeNet,Address,City,State,Zip,County,Url,PhoneNumber,Fax
Sangdae,Lee,HomeNet,Address,City,State,Zip,County,Url,PhoneNumber,Fax
Sangdae,Lee,HomeNet,Address,City,State,Zip,County,Url,PhoneNumber,Fax
Sangdae,Lee,HomeNet,Address,City,State,Zip,County,Url,PhoneNumber,Fax
Sangdae,Lee,HomeNet,Address,City,State,Zip,County,Url,PhoneNumber,Fax
Sangdae,Lee,HomeNet,Address,City,State,Zip,County,Url,PhoneNumber,Fax
Sangdae,Lee,HomeNet,Address,City,State,Zip,County,Url,PhoneNumber,Fax
Sangdae,Lee,HomeNet,Address,City,State,Zip,County,Url,PhoneNumber,Fax
Sangdae,Lee,HomeNet,Address,City,State,Zip,County,Url,PhoneNumber,Fax
Sangdae,Lee,HomeNet,Address,City,State,Zip,County,Url,PhoneNumber,Fax
Sangdae,Lee,HomeNet,Address,City,State,Zip,County,Url,PhoneNumber,Fax
Sangdae,Lee,HomeNet,Address,City,State,Zip,County,Url,PhoneNumber,Fax
Sangdae,Lee,HomeNet,Address,City,State,Zip,County,Url,PhoneNumber,Fax
Sangdae,Lee,HomeNet,Address,City,State,Zip,County,Url,PhoneNumber,Fax
Sangdae,Lee,HomeNet,Address,City,State,Zip,County,Url,PhoneNumber,Fax
Sangdae,Lee,HomeNet,Address,City,State,Zip,County,Url,PhoneNumber,Fax
Sangdae,Lee,HomeNet,Address,City,State,Zip,County,Url,PhoneNumber,Fax
Sangdae,Lee,HomeNet,Address,City,State,Zip,County,Url,PhoneNumber,Fax
Sangdae,Lee,HomeNet,Address,City,State,Zip,County,Url,PhoneNumber,Fax
Sangdae,Lee,HomeNet,Address,City,State,Zip,County,Url,PhoneNumber,Fax
Sangdae,Lee,HomeNet,Address,City,State,Zip,County,Url,PhoneNumber,Fax
Sangdae,Lee,HomeNet,Address,City,State,Zip,County,Url,PhoneNumber,Fax
Sangdae,Lee,HomeNet,Address,City,State,Zip,County,Url,PhoneNumber,Fax
Sangdae,Lee,HomeNet,Address,City,State,Zip,County,Url,PhoneNumber,Fax
Sangdae,Lee,HomeNet,Address,City,State,Zip,County,Url,PhoneNumber,Fax
Sangdae,Lee,HomeNet,Address,City,State,Zip,County,Url,PhoneNumber,Fax
Sangdae,Lee,HomeNet,Address,City,State,Zip,County,Url,PhoneNumber,Fax
Sangdae,Lee,HomeNet,Address,City,State,Zip,County,Url,PhoneNumber,Fax
Sangdae,Lee,HomeNet,Address,City,State,Zip,County,Url,PhoneNumber,Fax
Sangdae,Lee,HomeNet,Address,City,State,Zip,County,Url,PhoneNumber,Fax
Sangdae,Lee,HomeNet,Address,City,State,Zip,County,Url,PhoneNumber,Fax
Sangdae,Lee,HomeNet,Address,City,State,Zip,County,Url,PhoneNumber,Fax
Sangdae,Lee,HomeNet,Address,City,State,Zip,County,Url,PhoneNumber,Fax
Sangdae,Lee,HomeNet,Address,City,State,Zip,County,Url,PhoneNumber,Fax
Sangdae,Lee,HomeNet,Address,City,State,Zip,County,Url,PhoneNumber,Fax
Sangdae,Lee,HomeNet,Address,City,State,Zip,County,Url,PhoneNumber,Fax
Sangdae,Lee,HomeNet,Address,City,State,Zip,County,Url,PhoneNumber,Fax
Sangdae,Lee,HomeNet,Address,City,State,Zip,County,Url,PhoneNumber,Fax
Sangdae,Lee,HomeNet,Address,City,State,Zip,County,Url,PhoneNumber,Fax
Sangdae,Lee,HomeNet,Address,City,State,Zip,County,Url,PhoneNumber,Fax
Sangdae,Lee,HomeNet,Address,City,State,Zip,County,Url,PhoneNumber,Fax
Sangdae,Lee,HomeNet,Address,City,State,Zip,County,Url,PhoneNumber,Fax
Sangdae,Lee,HomeNet,Address,City,State,Zip,County,Url,PhoneNumber,Fax
Sangdae,Lee,HomeNet,Address,City,State,Zip,County,Url,PhoneNumber,Fax
Sangdae,Lee,HomeNet,Address,City,State,Zip,County,Url,PhoneNumber,Fax
Sangdae,Lee,HomeNet,Address,City,State,Zip,County,Url,PhoneNumber,Fax
Sangdae,Lee,HomeNet,Address,City,State,Zip,County,Url,PhoneNumber,Fax
Sangdae,Lee,HomeNet,Address,City,State,Zip,County,Url,PhoneNumber,Fax
Sangdae,Lee,HomeNet,Address,City,State,Zip,County,Url,PhoneNumber,Fax
Sangdae,Lee,HomeNet,Address,City,State,Zip,County,Url,PhoneNumber,Fax
Sangdae,Lee,HomeNet,Address,City,State,Zip,County,Url,PhoneNumber,Fax
Sangdae,Lee,HomeNet,Address,City,State,Zip,County,Url,PhoneNumber,Fax
Sangdae,Lee,HomeNet,Address,City,State,Zip,County,Url,PhoneNumber,Fax
Sangdae,Lee,HomeNet,Address,City,State,Zip,County,Url,PhoneNumber,Fax
Sangdae,Lee,HomeNet,Address,City,State,Zip,County,Url,PhoneNumber,Fax
Sangdae,Lee,HomeNet,Address,City,State,Zip,County,Url,PhoneNumber,Fax
Sangdae,Lee,HomeNet,Address,City,State,Zip,County,Url,PhoneNumber,Fax
Sangdae,Lee,HomeNet,Address,City,State,Zip,County,Url,PhoneNumber,Fax
Sangdae,Lee,HomeNet,Address,City,State,Zip,County,Url,PhoneNumber,Fax
Sangdae,Lee,HomeNet,Address,City,State,Zip,County,Url,PhoneNumber,Fax
Sangdae,Lee,HomeNet,Address,City,State,Zip,County,Url,PhoneNumber,Fax
Sangdae,Lee,HomeNet,Address,City,State,Zip,County,Url,PhoneNumber,Fax
Sangdae,Lee,HomeNet,Address,City,State,Zip,County,Url,PhoneNumber,Fax
Sangdae,Lee,HomeNet,Address,City,State,Zip,County,Url,PhoneNumber,Fax
Sangdae,Lee,HomeNet,Address,City,State,Zip,County,Url,PhoneNumber,Fax
Sangdae,Lee,HomeNet,Address,City,State,Zip,County,Url,PhoneNumber,Fax
Sangdae,Lee,HomeNet,Address,City,State,Zip,County,Url,PhoneNumber,Fax
Sangdae,Lee,HomeNet,Address,City,State,Zip,County,Url,PhoneNumber,Fax
Sangdae,Lee,HomeNet,Address,City,State,Zip,County,Url,PhoneNumber,Fax
Sangdae,Lee,HomeNet,Address,City,State,Zip,County,Url,PhoneNumber,Fax
Sangdae,Lee,HomeNet,Address,City,State,Zip,County,Url,PhoneNumber,Fax
Sangdae,Lee,HomeNet,Address,City,State,Zip,County,Url,PhoneNumber,Fax
Sangdae,Lee,HomeNet,Address,City,State,Zip,County,Url,PhoneNumber,Fax
Sangdae,Lee,HomeNet,Address,City,State,Zip,County,Url,PhoneNumber,Fax
Sangdae,Lee,HomeNet,Address,City,State,Zip,County,Url,PhoneNumber,Fax
Sangdae,Lee,HomeNet,Address,City,State,Zip,County,Url,PhoneNumber,Fax
Sangdae,Lee,HomeNet,Address,City,State,Zip,County,Url,PhoneNumber,Fax
Sangdae,Lee,HomeNet,Address,City,State,Zip,County,Url,PhoneNumber,Fax